NORAD_CAT_ID,OBJECT_NAME,OBJECT_TYPE,EPOCH,MEAN_MOTION,ECCENTRICITY,INCLINATION,RA_OF_ASC_NODE,ARG_OF_PERICENTER,MEAN_ANOMALY,BSTAR,MEAN_MOTION_DOT,MEAN_MOTION_DDOT,TLE_LINE0,TLE_LINE1,TLE_LINE2,SEMIMAJOR_AXIS,PERIOD,APOGEE,PERIGEE,DECAYED
52676.0,STARLINK-4006,PAYLOAD,2024-05-15 17:01:05,15.0890524,8.5e-05,53.2188,250.3545,62.4654,297.6424,0.00026103,3.876e-05,0.0,0 STARLINK-4006,1 52676U 22053W   24136.70908640  .00003876  00000-0  26103-3 0  9997,2 52676  53.2188 250.3545 0000850  62.4654 297.6424 15.08905240110526,6917.681,95.433,540.134,538.958,0.0
52676.0,STARLINK-4006,PAYLOAD,2024-05-16 00:58:01,15.08894622,0.0001653,53.2189,248.8677,87.6612,272.4569,-0.00026191,-4.46e-05,0.0,0 STARLINK-4006,1 52676U 22053W   24137.04029315 -.00004460  00000-0 -26191-3 0  9997,2 52676  53.2189 248.8677 0001653  87.6612 272.4569 15.08894622110577,6917.713,95.434,540.722,538.435,0.0
52676.0,STARLINK-4006,PAYLOAD,2024-05-16 13:41:04,15.08885047,0.0001334,53.218,246.4861,110.2391,249.8745,-0.00015162,-2.703e-05,0.0,0 STARLINK-4006,1 52676U 22053W   24137.57019353 -.00002703  00000-0 -15162-3 0  9990,2 52676  53.2180 246.4861 0001334 110.2391 249.8745 15.08885047111082,6917.743,95.435,540.531,538.685,0.0
52676.0,STARLINK-4006,PAYLOAD,2024-05-17 00:48:45,15.08875953,0.000125,53.2183,244.407,112.8119,247.3006,-0.00012214,-2.233e-05,0.0,0 STARLINK-4006,1 52676U 22053W   24138.03386315 -.00002233  00000-0 -12214-3 0  9990,2 52676  53.2183 244.4070 0001250 112.8119 247.3006 15.08875953110726,6917.77,95.435,540.5,538.771,0.0
52676.0,STARLINK-4006,PAYLOAD,2024-05-17 11:56:29,15.08846663,0.0001706,53.2184,242.3243,119.0641,241.0523,-0.00040135,-6.671e-05,0.0,0 STARLINK-4006,1 52676U 22053W   24138.49756539 -.00006671  00000-0 -40135-3 0  9992,2 52676  53.2184 242.3243 0001706 119.0641 241.0523 15.08846663110799,6917.86,95.437,540.905,538.545,0.0
52676.0,STARLINK-4006,PAYLOAD,2024-05-17 16:42:38,15.08849302,0.0001945,53.2181,241.4306,127.6748,232.4421,-0.00036193,-6.045e-05,0.0,0 STARLINK-4006,1 52676U 22053W   24138.69628028 -.00006045  00000-0 -36193-3 0  9999,2 52676  53.2181 241.4306 0001945 127.6748 232.4421 15.08849302111250,6917.852,95.437,541.062,538.371,0.0
52676.0,STARLINK-4006,PAYLOAD,2024-05-18 13:22:37,15.08861865,0.0001077,53.2164,237.5666,87.8968,272.2148,0.00012982,1.78e-05,0.0,0 STARLINK-4006,1 52676U 22053W   24139.55737726  .00001780  00000-0  12982-3 0  9990,2 52676  53.2164 237.5666 0001077  87.8968 272.2148 15.08861865110955,6917.814,95.436,540.424,538.934,0.0
52676.0,STARLINK-4006,PAYLOAD,2024-05-18 16:33:23,15.08868422,0.0001271,53.2177,236.9711,92.1143,267.9994,0.00010704,1.417e-05,0.0,0 STARLINK-4006,1 52676U 22053W   24139.68985206  .00001417  00000-0  10704-3 0  9999,2 52676  53.2177 236.9711 0001271  92.1143 267.9994 15.08868422111400,6917.794,95.436,540.538,538.779,0.0
52676.0,STARLINK-4006,PAYLOAD,2024-05-18 22:54:58,15.08824402,0.000222,53.2175,235.7838,94.7105,265.4141,-0.00011263,-2.08e-05,0.0,0 STARLINK-4006,1 52676U 22053W   24139.95484870 -.00002080  00000-0 -11263-3 0  9990,2 52676  53.2175 235.7838 0002220  94.7105 265.4141 15.08824402111010,6917.928,95.439,541.329,538.257,0.0
52676.0,STARLINK-4006,PAYLOAD,2024-05-19 13:13:27,15.08825199,0.0001448,53.2177,233.1084,118.8739,241.2398,4.5325e-05,4.33e-06,0.0,0 STARLINK-4006,1 52676U 22053W   24140.55101011  .00000433  00000-0  45325-4 0  9996,2 52676  53.2177 233.1084 0001448 118.8739 241.2398 15.08825199111536,6917.926,95.438,540.792,538.789,0.0
52676.0,STARLINK-4006,PAYLOAD,2024-05-20 05:07:18,15.08835497,0.0001597,53.2171,230.1343,113.0631,247.053,7.8075e-05,9.55e-06,0.0,0 STARLINK-4006,1 52676U 22053W   24141.21340718  .00000955  00000-0  78075-4 0  9996,2 52676  53.2171 230.1343 0001597 113.0631 247.0530 15.08835497111206,6917.894,95.438,540.864,538.654,0.0
52676.0,STARLINK-4006,PAYLOAD,2024-05-20 13:04:12,15.08865394,0.0001279,53.2176,228.6462,91.4566,268.6572,0.00010569,1.396e-05,0.0,0 STARLINK-4006,1 52676U 22053W   24141.54458782  .00001396  00000-0  10569-3 0  9996,2 52676  53.2176 228.6462 0001279  91.4566 268.6572 15.08865394111257,6917.803,95.436,540.553,538.783,0.0
52676.0,STARLINK-4006,PAYLOAD,2024-05-21 12:55:00,15.08841536,0.000113,53.2173,224.1879,96.4414,263.6707,0.00014704,2.053e-05,0.0,0 STARLINK-4006,1 52676U 22053W   24142.53820284  .00002053  00000-0  14704-3 0  9992,2 52676  53.2173 224.1879 0001130  96.4414 263.6707 15.08841536111404,6917.876,95.437,540.522,538.959,0.0
52676.0,STARLINK-4006,PAYLOAD,2024-05-22 04:48:52,15.08841784,0.0001616,53.2176,221.2209,49.3271,310.7862,3.7768e-05,3.13e-06,0.0,0 STARLINK-4006,1 52676U 22053W   24143.20060781  .00000313  00000-0  37768-4 0  9998,2 52676  53.2176 221.2209 0001616  49.3271 310.7862 15.08841784111501,6917.875,95.437,540.858,538.622,0.0
52676.0,STARLINK-4006,PAYLOAD,2024-05-22 11:10:25,15.08845967,0.0001508,53.2175,220.0289,65.6076,294.5074,-6.409e-05,-1.308e-05,0.0,0 STARLINK-4006,1 52676U 22053W   24143.46556760 -.00001308  00000-0 -64090-4 0  9998,2 52676  53.2175 220.0289 0001508  65.6076 294.5074 15.08845967111971,6917.862,95.437,540.77,538.684,0.0
52676.0,STARLINK-4006,PAYLOAD,2024-05-23 04:39:39,15.08819053,0.0001556,53.2172,216.757,69.6996,290.4163,0.00032397,4.869e-05,0.0,0 STARLINK-4006,1 52676U 22053W   24144.19420766  .00004869  00000-0  32397-3 0  9992,2 52676  53.2172 216.7570 0001556  69.6996 290.4163 15.08819053111657,6917.944,95.439,540.886,538.733,0.0
52676.0,STARLINK-4006,PAYLOAD,2024-05-23 11:01:11,15.0884344,0.0001613,53.2171,215.5673,60.9474,299.168,1.0968e-05,-1.13e-06,0.0,0 STARLINK-4006,1 52676U 22053W   24144.45916617 -.00000113  00000-0  10968-4 0  9996,2 52676  53.2171 215.5673 0001613  60.9474 299.1680 15.08843440111697,6917.87,95.437,540.851,538.619,0.0
52676.0,STARLINK-4006,PAYLOAD,2024-05-24 10:51:58,15.08847519,0.0001602,53.2161,211.106,61.5235,298.5918,0.00012772,1.746e-05,0.0,0 STARLINK-4006,1 52676U 22053W   24145.45275822  .00001746  00000-0  12772-3 0  9999,2 52676  53.2161 211.1060 0001602  61.5235 298.5918 15.08847519112271,6917.857,95.437,540.831,538.614,0.0
52676.0,STARLINK-4006,PAYLOAD,2024-05-24 21:59:40,15.08846138,0.0001568,53.2169,209.025,71.8168,288.2994,0.00011254,1.504e-05,0.0,0 STARLINK-4006,1 52676U 22053W   24145.91643731  .00001504  00000-0  11254-3 0  9994,2 52676  53.2169 209.0250 0001568  71.8168 288.2994 15.08846138112340,6917.862,95.437,540.811,538.642,0.0
52676.0,STARLINK-4006,PAYLOAD,2024-05-25 10:42:47,15.08816994,0.0001346,53.2166,206.6443,93.9917,266.1229,-0.00020364,-3.525e-05,0.0,0 STARLINK-4006,1 52676U 22053W   24146.44638353 -.00003525  00000-0 -20364-3 0  9996,2 52676  53.2166 206.6443 0001346  93.9917 266.1229 15.08816994111998,6917.951,95.439,540.747,538.885,0.0
52676.0,STARLINK-4006,PAYLOAD,2024-05-25 13:53:32,15.08838852,0.0001331,53.2166,206.0495,91.0692,269.0452,7.3784e-06,-1.7e-06,0.0,0 STARLINK-4006,1 52676U 22053W   24146.57884512 -.00000170  00000-0  73784-5 0  9998,2 52676  53.2166 206.0495 0001331  91.0692 269.0452 15.08838852112440,6917.884,95.438,540.67,538.828,0.0
52676.0,STARLINK-4006,PAYLOAD,2024-05-26 08:58:09,15.08850113,0.0001332,53.2169,202.4801,95.1891,264.9253,-1.8235e-05,-5.78e-06,0.0,0 STARLINK-4006,1 52676U 22053W   24147.37371929 -.00000578  00000-0 -18235-4 0  9992,2 52676  53.2169 202.4801 0001332  95.1891 264.9253 15.08850113112134,6917.849,95.437,540.636,538.793,0.0
52676.0,STARLINK-4006,PAYLOAD,2024-05-26 13:44:18,15.08851403,0.0001272,53.2168,201.5885,92.4859,267.6279,-1.3844e-06,-3.1e-06,0.0,0 STARLINK-4006,1 52676U 22053W   24147.57243670 -.00000310  00000-0 -13844-5 0  9991,2 52676  53.2168 201.5885 0001272  92.4859 267.6279 15.08851403112593,6917.846,95.437,540.59,538.831,0.0
52676.0,STARLINK-4006,PAYLOAD,2024-05-26 20:05:51,15.08842491,0.0001282,53.2172,200.3996,108.0989,252.0143,-4.8853e-05,-1.065e-05,0.0,0 STARLINK-4006,1 52676U 22053W   24147.83740204 -.00001065  00000-0 -48853-4 0  9990,2 52676  53.2172 200.3996 0001282 108.0989 252.0143 15.08842491112200,6917.873,95.437,540.625,538.851,0.0
52676.0,STARLINK-4006,PAYLOAD,2024-05-27 04:02:47,15.08830355,0.0001294,53.2172,198.9112,110.8263,249.2868,0.00013234,1.818e-05,0.0,0 STARLINK-4006,1 52676U 22053W   24148.16860590  .00001818  00000-0  13234-3 0  9996,2 52676  53.2172 198.9112 0001294 110.8263 249.2868 15.08830355112254,6917.91,95.438,540.67,538.88,0.0
52676.0,STARLINK-4006,PAYLOAD,2024-05-27 10:24:19,15.08836075,0.0001295,53.2169,197.7216,98.3867,261.7272,0.00010105,1.321e-05,0.0,0 STARLINK-4006,1 52676U 22053W   24148.43356437  .00001321  00000-0  10105-3 0  9999,2 52676  53.2169 197.7216 0001295  98.3867 261.7272 15.08836075112728,6917.892,95.438,540.653,538.862,0.0
52676.0,STARLINK-4006,PAYLOAD,2024-05-28 10:15:07,15.08838991,0.0001331,53.2169,193.2602,101.4069,258.7072,8.3966e-07,-2.75e-06,0.0,0 STARLINK-4006,1 52676U 22053W   24149.42716632 -.00000275  00000-0  83966-6 0  9992,2 52676  53.2169 193.2602 0001331 101.4069 258.7072 15.08838991112441,6917.883,95.438,540.669,538.828,0.0
52676.0,STARLINK-4006,PAYLOAD,2024-05-29 11:41:17,15.08842253,0.0001247,53.2167,188.5034,98.8149,261.2984,5.159e-05,5.33e-06,0.0,0 STARLINK-4006,1 52676U 22053W   24150.48700295  .00000533  00000-0  51590-4 0  9990,2 52676  53.2167 188.5034 0001247  98.8149 261.2984 15.08842253112604,6917.874,95.437,540.601,538.876,0.0
52676.0,STARLINK-4006,PAYLOAD,2024-05-30 09:56:41,15.08841348,0.0001201,53.2163,184.3407,96.3332,263.7797,6.4434e-05,7.38e-06,0.0,0 STARLINK-4006,1 52676U 22053W   24151.41436343  .00000738  00000-0  64434-4 0  9992,2 52676  53.2163 184.3407 0001201  96.3332 263.7797 15.08841348113171,6917.876,95.437,540.572,538.91,0.0
52676.0,STARLINK-4006,PAYLOAD,2024-05-31 01:50:32,15.0884303,0.0001286,53.2165,181.3685,87.2845,272.8294,3.4628e-05,2.63e-06,0.0,0 STARLINK-4006,1 52676U 22053W   24152.07676416  .00000263  00000-0  34628-4 0  9997,2 52676  53.2165 181.3685 0001286  87.2845 272.8294 15.08843030112845,6917.871,95.437,540.626,538.846,0.0
